{
  "type": "FeatureCollection",
  "features": [
    {
      "type": "Feature",
      "properties": {
        "norad_id": 45807,
        "name": "BEIDOU-3 G3 (C61)",
        "group": "gnss",
        "lat": -1.9698365337689798,
        "lon": -9.673937824650032,
        "alt_km": 35762.46174878955,
        "timestamp": "2025-12-24T09:46:31.247555+00:00",
        "meta_object_name": "BEIDOU-3 G3 (C61)",
        "meta_object_id": "2020-040A",
        "meta_epoch": "2025-12-23T22:13:07.225248",
        "meta_mean_motion": 1.00268431,
        "meta_eccentricity": 0.00065719,
        "meta_inclination": 2.0164,
        "meta_ra_of_asc_node": 66.6762,
        "meta_arg_of_pericenter": 309.0867,
        "meta_mean_anomaly": 160.7733,
        "meta_ephemeris_type": 0,
        "meta_classification_type": "U",
        "meta_norad_cat_id": 45807,
        "meta_element_set_no": 999,
        "meta_rev_at_epoch": 2031,
        "meta_bstar": 0,
        "meta_mean_motion_dot": -3.33e-06,
        "meta_mean_motion_ddot": 0,
        "tle_line1": "1 45807U 20040A   25357.92577807 -.00000333  00000+0  00000+0 0  9995",
        "tle_line2": "2 45807   2.0164  66.6762 0006571 309.0867 160.7733  1.00268431 20312"
      },
      "geometry": {
        "type": "Point",
        "coordinates": [
          -9.673937824650032,
          -1.9698365337689798
        ]
      }
    },
    {
      "type": "Feature",
      "properties": {
        "norad_id": 45854,
        "name": "GPS BIII-3  (PRN 23)",
        "group": "gnss",
        "lat": 40.96297634424783,
        "lon": -179.25125311488148,
        "alt_km": 20136.631625632017,
        "timestamp": "2025-12-24T09:46:31.247566+00:00",
        "meta_object_name": "GPS BIII-3  (PRN 23)",
        "meta_object_id": "2020-041A",
        "meta_epoch": "2025-12-23T06:54:40.562208",
        "meta_mean_motion": 2.00561768,
        "meta_eccentricity": 0.00606476,
        "meta_inclination": 56.5539,
        "meta_ra_of_asc_node": 35.7754,
        "meta_arg_of_pericenter": 203.7047,
        "meta_mean_anomaly": 196.9972,
        "meta_ephemeris_type": 0,
        "meta_classification_type": "U",
        "meta_norad_cat_id": 45854,
        "meta_element_set_no": 999,
        "meta_rev_at_epoch": 4051,
        "meta_bstar": 0,
        "meta_mean_motion_dot": -4.9e-07,
        "meta_mean_motion_ddot": 0,
        "tle_line1": "1 45854U 20041A   25357.28796947 -.00000049  00000+0  00000+0 0  9999",
        "tle_line2": "2 45854  56.5539  35.7754 0060647 203.7047 196.9972  2.00561768 40516"
      },
      "geometry": {
        "type": "Point",
        "coordinates": [
          -179.25125311488148,
          40.96297634424783
        ]
      }
    },
    {
      "type": "Feature",
      "properties": {
        "norad_id": 46114,
        "name": "GALAXY 30 (WAAS/PRN 135)",
        "group": "gnss",
        "lat": 0.016564357285967207,
        "lon": 114.79232759912523,
        "alt_km": 35794.64742599531,
        "timestamp": "2025-12-24T09:46:31.247579+00:00",
        "meta_object_name": "GALAXY 30 (WAAS/PRN 135)",
        "meta_object_id": "2020-056C",
        "meta_epoch": "2025-12-23T22:48:33.829920",
        "meta_mean_motion": 1.00270256,
        "meta_eccentricity": 0.0002119,
        "meta_inclination": 0.0109,
        "meta_ra_of_asc_node": 314.0178,
        "meta_arg_of_pericenter": 316.2367,
        "meta_mean_anomaly": 39.6172,
        "meta_ephemeris_type": 0,
        "meta_classification_type": "U",
        "meta_norad_cat_id": 46114,
        "meta_element_set_no": 999,
        "meta_rev_at_epoch": 1953,
        "meta_bstar": 0,
        "meta_mean_motion_dot": 5.8e-07,
        "meta_mean_motion_ddot": 0,
        "tle_line1": "1 46114U 20056C   25357.95039155  .00000058  00000+0  00000+0 0  9999",
        "tle_line2": "2 46114   0.0109 314.0178 0002119 316.2367  39.6172  1.00270256 19532"
      },
      "geometry": {
        "type": "Point",
        "coordinates": [
          114.79232759912523,
          0.016564357285967207
        ]
      }
    },
    {
      "type": "Feature",
      "properties": {
        "norad_id": 46805,
        "name": "COSMOS 2547 (705K)",
        "group": "gnss",
        "lat": 19.71195171941927,
        "lon": -151.88067990631853,
        "alt_km": 19142.021637865542,
        "timestamp": "2025-12-24T09:46:31.247591+00:00",
        "meta_object_name": "COSMOS 2547 (705K)",
        "meta_object_id": "2020-075A",
        "meta_epoch": "2025-12-22T23:18:06.838272",
        "meta_mean_motion": 2.13100223,
        "meta_eccentricity": 0.00061117,
        "meta_inclination": 64.5968,
        "meta_ra_of_asc_node": 198.3547,
        "meta_arg_of_pericenter": 227.5721,
        "meta_mean_anomaly": 132.44,
        "meta_ephemeris_type": 0,
        "meta_classification_type": "U",
        "meta_norad_cat_id": 46805,
        "meta_element_set_no": 999,
        "meta_rev_at_epoch": 4015,
        "meta_bstar": 0,
        "meta_mean_motion_dot": 9.5e-07,
        "meta_mean_motion_ddot": 0,
        "tle_line1": "1 46805U 20075A   25356.97091248  .00000095  00000+0  00000+0 0  9990",
        "tle_line2": "2 46805  64.5968 198.3547 0006111 227.5721 132.4400  2.13100223 40153"
      },
      "geometry": {
        "type": "Point",
        "coordinates": [
          -151.88067990631853,
          19.71195171941927
        ]
      }
    },
    {
      "type": "Feature",
      "properties": {
        "norad_id": 46826,
        "name": "GPS BIII-4  (PRN 14)",
        "group": "gnss",
        "lat": 52.942882313739645,
        "lon": -36.33200939623591,
        "alt_km": 20216.973773243946,
        "timestamp": "2025-12-24T09:46:31.247602+00:00",
        "meta_object_name": "GPS BIII-4  (PRN 14)",
        "meta_object_id": "2020-078A",
        "meta_epoch": "2025-12-16T01:06:13.902336",
        "meta_mean_motion": 2.00566891,
        "meta_eccentricity": 0.00647535,
        "meta_inclination": 54.0144,
        "meta_ra_of_asc_node": 218.2068,
        "meta_arg_of_pericenter": 203.3802,
        "meta_mean_anomaly": 339.3962,
        "meta_ephemeris_type": 0,
        "meta_classification_type": "U",
        "meta_norad_cat_id": 46826,
        "meta_element_set_no": 999,
        "meta_rev_at_epoch": 3783,
        "meta_bstar": 0,
        "meta_mean_motion_dot": 6.7e-07,
        "meta_mean_motion_ddot": 0,
        "tle_line1": "1 46826U 20078A   25350.04599424  .00000067  00000+0  00000+0 0  9996",
        "tle_line2": "2 46826  54.0144 218.2068 0064753 203.3802 339.3962  2.00566891 37839"
      },
      "geometry": {
        "type": "Point",
        "coordinates": [
          -36.33200939623591,
          52.942882313739645
        ]
      }
    },
    {
      "type": "Feature",
      "properties": {
        "norad_id": 48859,
        "name": "GPS BIII-5  (PRN 11)",
        "group": "gnss",
        "lat": -52.470330823230086,
        "lon": -85.13263531527207,
        "alt_km": 20147.722203865294,
        "timestamp": "2025-12-24T09:46:31.247615+00:00",
        "meta_object_name": "GPS BIII-5  (PRN 11)",
        "meta_object_id": "2021-054A",
        "meta_epoch": "2025-12-08T04:14:32.423424",
        "meta_mean_motion": 2.00553627,
        "meta_eccentricity": 0.0024678,
        "meta_inclination": 55.2581,
        "meta_ra_of_asc_node": 340.1367,
        "meta_arg_of_pericenter": 233.3993,
        "meta_mean_anomaly": 212.8594,
        "meta_ephemeris_type": 0,
        "meta_classification_type": "U",
        "meta_norad_cat_id": 48859,
        "meta_element_set_no": 999,
        "meta_rev_at_epoch": 3292,
        "meta_bstar": 0,
        "meta_mean_motion_dot": -8.6e-07,
        "meta_mean_motion_ddot": 0,
        "tle_line1": "1 48859U 21054A   25342.17676416 -.00000086  00000+0  00000+0 0  9993",
        "tle_line2": "2 48859  55.2581 340.1367 0024678 233.3993 212.8594  2.00553627 32922"
      },
      "geometry": {
        "type": "Point",
        "coordinates": [
          -85.13263531527207,
          -52.470330823230086
        ]
      }
    },
    {
      "type": "Feature",
      "properties": {
        "norad_id": 49336,
        "name": "QZS-1R (QZSS/PRN 196)",
        "group": "gnss",
        "lat": -33.18948179331359,
        "lon": 22.449764726866793,
        "alt_km": 32840.10135951995,
        "timestamp": "2025-12-24T09:46:31.247627+00:00",
        "meta_object_name": "QZS-1R (QZSS/PRN 196)",
        "meta_object_id": "2021-096A",
        "meta_epoch": "2025-12-23T14:03:59.721696",
        "meta_mean_motion": 1.00253792,
        "meta_eccentricity": 0.07574903,
        "meta_inclination": 37.0985,
        "meta_ra_of_asc_node": 82.1998,
        "meta_arg_of_pericenter": 271.5244,
        "meta_mean_anomaly": 83.7292,
        "meta_ephemeris_type": 0,
        "meta_classification_type": "U",
        "meta_norad_cat_id": 49336,
        "meta_element_set_no": 999,
        "meta_rev_at_epoch": 1525,
        "meta_bstar": 0,
        "meta_mean_motion_dot": -2.42e-06,
        "meta_mean_motion_ddot": 0,
        "tle_line1": "1 49336U 21096A   25357.58610789 -.00000242  00000+0  00000+0 0  9996",
        "tle_line2": "2 49336  37.0985  82.1998 0757490 271.5244  83.7292  1.00253792 15256"
      },
      "geometry": {
        "type": "Point",
        "coordinates": [
          22.449764726866793,
          -33.18948179331359
        ]
      }
    }
  ]
}